STARLINK-31566          
1 59475U 24068W   26068.29377085 -.00000767  00000+0 -18371-4 0  9998
2 59475  43.0040  36.6226 0000915 268.5979  91.4768 15.27575715108468
TRANSPORTER-12 OBJECT AZ
1 62656U 25009AZ  26068.71026235  .00016057  00000+0  54903-3 0  9991
2 62656  97.3981 151.9913 0000987  45.3581 314.7740 15.30349724 63792
